start=new Date('2022-07-27T00:00:00.000Z').valueOf();
sats=[{"EPHEMERIS_TYPE":"0","CLASSIFICATION_TYPE":"U","OBJECT_TYPE":"PAYLOAD","MEAN_MOTION_DDOT":"0.0000000000000","SITE":"AFETR","LAUNCH_DATE":"2021-03-14","CENTER_NAME":"EARTH","MEAN_MOTION":"15.06393138","ARG_OF_PERICENTER":"66.7712","ECCENTRICITY":"0.00016940","OBJECT_ID":"2021-021AN","MEAN_MOTION_DOT":"0.00000648","OBJECT_NAME":"STARLINK-2356","COUNTRY_CODE":"US","INCLINATION":"53.0542","REF_FRAME":"TEME","DECAY_DATE":null,"EPOCH":"2022-07-26T20:58:06.292416","NORAD_CAT_ID":"47896","PERIOD":"95.593","PERIAPSIS":"546.061","TLE_LINE1":"1 47896U 21021AN  22207.87368394  .00000648  00000-0  62403-4 0  9998","ELEMENT_SET_NO":"999","MEAN_ANOMALY":"293.3455","APOAPSIS":"548.408","GP_ID":"208929116","FILE":"3522469","TIME_SYSTEM":"UTC","RA_OF_ASC_NODE":"100.4902","RCS_SIZE":"LARGE","MEAN_ELEMENT_THEORY":"SGP4","TLE_LINE2":"2 47896  53.0542 100.4902 0001694  66.7712 293.3455 15.06393138 76700","SEMIMAJOR_AXIS":"6925.370","REV_AT_EPOCH":"7670","BSTAR":"0.00006240300000"},{"BSTAR":"0.00001126900000","REV_AT_EPOCH":"7697","SEMIMAJOR_AXIS":"6925.369","TLE_LINE2":"2 47897  53.0566  85.4447 0001545  72.8730 287.2429 15.06393278 76973","MEAN_ELEMENT_THEORY":"SGP4","RA_OF_ASC_NODE":"85.4447","RCS_SIZE":"LARGE","FILE":"3522469","TIME_SYSTEM":"UTC","GP_ID":"208929867","APOAPSIS":"548.304","MEAN_ANOMALY":"287.2429","ELEMENT_SET_NO":"999","TLE_LINE1":"1 47897U 21021AP  22207.87964034 -.00000114  00000-0  11269-4 0  9995","PERIAPSIS":"546.164","PERIOD":"95.593","NORAD_CAT_ID":"47897","EPOCH":"2022-07-26T21:06:40.925376","DECAY_DATE":null,"REF_FRAME":"TEME","INCLINATION":"53.0566","COUNTRY_CODE":"US","OBJECT_NAME":"STARLINK-2357","MEAN_MOTION_DOT":"-0.00000114","OBJECT_ID":"2021-021AP","ECCENTRICITY":"0.00015450","ARG_OF_PERICENTER":"72.8730","MEAN_MOTION":"15.06393278","CENTER_NAME":"EARTH","LAUNCH_DATE":"2021-03-14","SITE":"AFETR","MEAN_MOTION_DDOT":"0.0000000000000","OBJECT_TYPE":"PAYLOAD","CLASSIFICATION_TYPE":"U","EPHEMERIS_TYPE":"0"},{"TLE_LINE1":"1 47898U 21021AQ  22207.87321240  .00000355  00000-0  42759-4 0  9996","ELEMENT_SET_NO":"999","MEAN_ANOMALY":"277.4589","DECAY_DATE":null,"EPOCH":"2022-07-26T20:57:25.551360","NORAD_CAT_ID":"47898","PERIOD":"95.592","PERIAPSIS":"546.160","TLE_LINE2":"2 47898  53.0545  85.4940 0001534  82.6575 277.4589 15.06396995 76914","SEMIMAJOR_AXIS":"6925.358","REV_AT_EPOCH":"7691","BSTAR":"0.00004275900000","APOAPSIS":"548.285","GP_ID":"208928615","TIME_SYSTEM":"UTC","FILE":"3522469","RCS_SIZE":"LARGE","RA_OF_ASC_NODE":"85.4940","MEAN_ELEMENT_THEORY":"SGP4","SITE":"AFETR","MEAN_MOTION_DDOT":"0.0000000000000","LAUNCH_DATE":"2021-03-14","CENTER_NAME":"EARTH","EPHEMERIS_TYPE":"0","CLASSIFICATION_TYPE":"U","OBJECT_TYPE":"PAYLOAD","MEAN_MOTION_DOT":"0.00000355","OBJECT_NAME":"STARLINK-2358","COUNTRY_CODE":"US","INCLINATION":"53.0545","REF_FRAME":"TEME","MEAN_MOTION":"15.06396995","ARG_OF_PERICENTER":"82.6575","ECCENTRICITY":"0.00015340","OBJECT_ID":"2021-021AQ"},{"BSTAR":"-0.00006829600000","REV_AT_EPOCH":"7711","TLE_LINE2":"2 47899  53.0543  75.4888 0001702  82.7347 277.3835 15.06399152 77112","SEMIMAJOR_AXIS":"6925.351","MEAN_ELEMENT_THEORY":"SGP4","RCS_SIZE":"LARGE","RA_OF_ASC_NODE":"75.4888","FILE":"3522469","TIME_SYSTEM":"UTC","GP_ID":"208928365","APOAPSIS":"548.395","MEAN_ANOMALY":"277.3835","ELEMENT_SET_NO":"999","TLE_LINE1":"1 47899U 21021AR  22207.86950700 -.00001299  00000-0 -68296-4 0  9999","PERIAPSIS":"546.037","PERIOD":"95.592","NORAD_CAT_ID":"47899","EPOCH":"2022-07-26T20:52:05.404800","DECAY_DATE":null,"REF_FRAME":"TEME","INCLINATION":"53.0543","COUNTRY_CODE":"US","OBJECT_NAME":"STARLINK-2359","MEAN_MOTION_DOT":"-0.00001299","OBJECT_ID":"2021-021AR","ECCENTRICITY":"0.00017020","ARG_OF_PERICENTER":"82.7347","MEAN_MOTION":"15.06399152","CENTER_NAME":"EARTH","LAUNCH_DATE":"2021-03-14","SITE":"AFETR","MEAN_MOTION_DDOT":"0.0000000000000","OBJECT_TYPE":"PAYLOAD","EPHEMERIS_TYPE":"0","CLASSIFICATION_TYPE":"U"},{"OBJECT_TYPE":"PAYLOAD","CLASSIFICATION_TYPE":"U","EPHEMERIS_TYPE":"0","CENTER_NAME":"EARTH","LAUNCH_DATE":"2021-03-14","MEAN_MOTION_DDOT":"0.0000000000000","SITE":"AFETR","ECCENTRICITY":"0.00014600","OBJECT_ID":"2021-021AS","MEAN_MOTION":"15.06397482","ARG_OF_PERICENTER":"69.3056","INCLINATION":"53.0547","REF_FRAME":"TEME","COUNTRY_CODE":"US","OBJECT_NAME":"STARLINK-2360","MEAN_MOTION_DOT":"0.00001825","PERIAPSIS":"546.210","NORAD_CAT_ID":"47900","PERIOD":"95.592","EPOCH":"2022-07-26T19:52:22.792512","DECAY_DATE":null,"MEAN_ANOMALY":"290.8090","ELEMENT_SET_NO":"999","TLE_LINE1":"1 47900U 21021AS  22207.82804158  .00001825  00000-0  14138-3 0  9991","MEAN_ELEMENT_THEORY":"SGP4","TIME_SYSTEM":"UTC","FILE":"3522469","RCS_SIZE":"LARGE","RA_OF_ASC_NODE":"85.6955","APOAPSIS":"548.232","GP_ID":"208929617","REV_AT_EPOCH":"7696","BSTAR":"0.00014138000000","SEMIMAJOR_AXIS":"6925.356","TLE_LINE2":"2 47900  53.0547  85.6955 0001460  69.3056 290.8090 15.06397482 76965"},{"FILE":"3522469","TIME_SYSTEM":"UTC","RCS_SIZE":"LARGE","RA_OF_ASC_NODE":"75.6403","APOAPSIS":"548.288","GP_ID":"208929367","MEAN_ELEMENT_THEORY":"SGP4","REV_AT_EPOCH":"7709","BSTAR":"0.00019313000000","TLE_LINE2":"2 47901  53.0553  75.6403 0001590  79.3332 280.7836 15.06408600 77098","SEMIMAJOR_AXIS":"6925.322","EPOCH":"2022-07-26T20:37:31.733184","DECAY_DATE":null,"PERIAPSIS":"546.086","NORAD_CAT_ID":"47901","PERIOD":"95.592","ELEMENT_SET_NO":"999","TLE_LINE1":"1 47901U 21021AT  22207.85939506  .00002597  00000-0  19313-3 0  9998","MEAN_ANOMALY":"280.7836","ECCENTRICITY":"0.00015900","OBJECT_ID":"2021-021AT","MEAN_MOTION":"15.06408600","ARG_OF_PERICENTER":"79.3332","MEAN_MOTION_DOT":"0.00002597","INCLINATION":"53.0553","REF_FRAME":"TEME","COUNTRY_CODE":"US","OBJECT_NAME":"STARLINK-2361","OBJECT_TYPE":"PAYLOAD","EPHEMERIS_TYPE":"0","CLASSIFICATION_TYPE":"U","LAUNCH_DATE":"2021-03-14","SITE":"AFETR","MEAN_MOTION_DDOT":"0.0000000000000","CENTER_NAME":"EARTH"},{"REV_AT_EPOCH":"7692","BSTAR":"0.00015563000000","TLE_LINE2":"2 47902  53.0551  95.6218 0001585  78.9825 281.1342 15.06401424 76924","SEMIMAJOR_AXIS":"6925.344","MEAN_ELEMENT_THEORY":"SGP4","FILE":"3522469","TIME_SYSTEM":"UTC","RA_OF_ASC_NODE":"95.6218","RCS_SIZE":"LARGE","APOAPSIS":"548.307","GP_ID":"208928115","MEAN_ANOMALY":"281.1342","ELEMENT_SET_NO":"999","TLE_LINE1":"1 47902U 21021AU  22207.84280944  .00002037  00000-0  15563-3 0  9995","PERIAPSIS":"546.112","NORAD_CAT_ID":"47902","PERIOD":"95.592","EPOCH":"2022-07-26T20:13:38.735616","DECAY_DATE":null,"INCLINATION":"53.0551","REF_FRAME":"TEME","OBJECT_NAME":"STARLINK-2362","COUNTRY_CODE":"US","MEAN_MOTION_DOT":"0.00002037","ECCENTRICITY":"0.00015850","OBJECT_ID":"2021-021AU","MEAN_MOTION":"15.06401424","ARG_OF_PERICENTER":"78.9825","CENTER_NAME":"EARTH","LAUNCH_DATE":"2021-03-14","MEAN_MOTION_DDOT":"0.0000000000000","SITE":"AFETR","OBJECT_TYPE":"PAYLOAD","CLASSIFICATION_TYPE":"U","EPHEMERIS_TYPE":"0"},{"COUNTRY_CODE":"US","OBJECT_NAME":"STARLINK-2363","INCLINATION":"53.0547","REF_FRAME":"TEME","MEAN_MOTION_DOT":"0.00005886","MEAN_MOTION":"15.06407202","ARG_OF_PERICENTER":"73.4865","ECCENTRICITY":"0.00016060","OBJECT_ID":"2021-021AV","CENTER_NAME":"EARTH","MEAN_MOTION_DDOT":"0.0000000000000","SITE":"AFETR","LAUNCH_DATE":"2021-03-14","CLASSIFICATION_TYPE":"U","EPHEMERIS_TYPE":"0","OBJECT_TYPE":"PAYLOAD","TLE_LINE2":"2 47903  53.0547  75.5103 0001606  73.4865 286.6301 15.06407202 77441","SEMIMAJOR_AXIS":"6925.326","REV_AT_EPOCH":"7744","BSTAR":"0.00041361000000","MEAN_ELEMENT_THEORY":"SGP4","APOAPSIS":"548.304","GP_ID":"208928866","FILE":"3522469","TIME_SYSTEM":"UTC","RA_OF_ASC_NODE":"75.5103","RCS_SIZE":"LARGE","MEAN_ANOMALY":"286.6301","TLE_LINE1":"1 47903U 21021AV  22207.86582113  .00005886  00000-0  41361-3 0  9991","ELEMENT_SET_NO":"999","NORAD_CAT_ID":"47903","PERIOD":"95.592","PERIAPSIS":"546.079","DECAY_DATE":null,"EPOCH":"2022-07-26T20:46:46.945632"},{"GP_ID":"208929117","APOAPSIS":"548.228","RCS_SIZE":"LARGE","RA_OF_ASC_NODE":"75.5384","TIME_SYSTEM":"UTC","FILE":"3522469","MEAN_ELEMENT_THEORY":"SGP4","SEMIMAJOR_AXIS":"6925.386","TLE_LINE2":"2 47904  53.0543  75.5384 0001410  92.4103 267.7048 15.06387695 77089","BSTAR":"0.00018790000000","REV_AT_EPOCH":"7708","DECAY_DATE":null,"EPOCH":"2022-07-26T20:42:50.814432","PERIOD":"95.593","NORAD_CAT_ID":"47904","PERIAPSIS":"546.275","TLE_LINE1":"1 47904U 21021AW  22207.86308813  .00002517  00000-0  18790-3 0  9993","ELEMENT_SET_NO":"999","MEAN_ANOMALY":"267.7048","ARG_OF_PERICENTER":"92.4103","MEAN_MOTION":"15.06387695","OBJECT_ID":"2021-021AW","ECCENTRICITY":"0.00014100","MEAN_MOTION_DOT":"0.00002517","OBJECT_NAME":"STARLINK-2364","COUNTRY_CODE":"US","REF_FRAME":"TEME","INCLINATION":"53.0543","CLASSIFICATION_TYPE":"U","EPHEMERIS_TYPE":"0","OBJECT_TYPE":"PAYLOAD","SITE":"AFETR","MEAN_MOTION_DDOT":"0.0000000000000","LAUNCH_DATE":"2021-03-14","CENTER_NAME":"EARTH"},{"TLE_LINE2":"2 47905  53.0549  75.5412 0001566  78.5642 281.5523 15.06399227 77214","SEMIMAJOR_AXIS":"6925.351","REV_AT_EPOCH":"7721","BSTAR":"0.00008254000000","MEAN_ELEMENT_THEORY":"SGP4","APOAPSIS":"548.300","GP_ID":"208929868","TIME_SYSTEM":"UTC","FILE":"3522469","RCS_SIZE":"LARGE","RA_OF_ASC_NODE":"75.5412","MEAN_ANOMALY":"281.5523","TLE_LINE1":"1 47905U 21021AX  22207.85844735  .00000948  00000-0  82540-4 0  9992","ELEMENT_SET_NO":"999","NORAD_CAT_ID":"47905","PERIOD":"95.592","PERIAPSIS":"546.131","DECAY_DATE":null,"EPOCH":"2022-07-26T20:36:09.851040","COUNTRY_CODE":"US","OBJECT_NAME":"STARLINK-2365","INCLINATION":"53.0549","REF_FRAME":"TEME","MEAN_MOTION_DOT":"0.00000948","MEAN_MOTION":"15.06399227","ARG_OF_PERICENTER":"78.5642","ECCENTRICITY":"0.00015660","OBJECT_ID":"2021-021AX","CENTER_NAME":"EARTH","SITE":"AFETR","MEAN_MOTION_DDOT":"0.0000000000000","LAUNCH_DATE":"2021-03-14","CLASSIFICATION_TYPE":"U","EPHEMERIS_TYPE":"0","OBJECT_TYPE":"PAYLOAD"}];
